GOES 1 (SMS-C) [-]      
1 08366U 75100A   23178.54892174  .00000003  00000+0  00000+0 0  9998
2 08366   7.3569 291.0064 0001928 233.1422 193.4322  1.00231038174323
GOES 2 [-]              
1 10061U 77048A   23179.24865909 -.00000242  00000+0  00000+0 0  9996
2 10061   8.9892 303.1988 0010447  40.4097 342.4055  0.99399827112731
GOES 3 [-]              
1 10953U 78062A   23177.69888876 -.00000303  00000+0  00000+0 0  9996
2 10953   9.3564 307.9969 0003559 157.4488 197.6652  0.99364457117809
GOES 4 [-]              
1 11964U 80074A   23177.04061823  .00000027  00000+0  00000+0 0  9991
2 11964  10.3470 311.8410 0033104  86.9271 280.7160  0.99230477116845
GOES 5 [-]              
1 12472U 81049A   23177.40271498 -.00000161  00000+0  00000+0 0  9990
2 12472  11.3051 323.5236 0002353 162.8698 200.4063  1.00208740112063
GOES 6 [-]              
1 14050U 83041A   23178.58389873 -.00000077  00000+0  00000+0 0  9991
2 14050  11.9251 328.9119 0005238 153.0520 257.0941  1.00217578205172
GOES 7 [-]              
1 17561U 87022A   23178.91704726 -.00000269  00000+0  00000+0 0  9992
2 17561  13.9149 345.5465 0005564  87.0999 277.0395  0.99894328116141
GOES 8 [-]              
1 23051U 94022A   23177.41924395 -.00000231  00000+0  00000+0 0  9990
2 23051  13.4951  21.5594 0007611  58.0726 307.0807  0.98906788113370
GOES 9 [-]              
1 23581U 95025A   23179.05686995  .00000032  00000+0  00000+0 0  9993
2 23581  12.9955  22.0252 0008681 107.7806 243.3591  0.98797652102033
GOES 10 [-]             
1 24786U 97019A   23178.39134560 -.00000087  00000+0  00000+0 0  9999
2 24786  11.8468  28.3560 0025978 206.3130  11.9756  0.99126643 95291
GOES 11 [-]             
1 26352U 00022A   23178.02788859 -.00000198  00000+0  00000+0 0  9997
2 26352   9.4804  56.2832 0000986  71.5338 105.9766  0.99043337 84230
GOES 12 [-]             
1 26871U 01031A   23178.89539950 -.00000219  00000+0  00000+0 0  9999
2 26871  10.1949  45.6649 0005191 354.6326 183.6444  0.99140299 79974
EWS-G1 (GOES 13) [+]    
1 29155U 06018A   23172.81756907  .00000043  00000+0  00000+0 0  9990
2 29155   1.5416  91.7221 0002821  86.8158  86.8398  1.00274805 32433
GOES 14 [B]             
1 35491U 09033A   23178.46435667 -.00000046  00000+0  00000+0 0  9998
2 35491   0.3590 104.6160 0005847 332.4480 256.7869  1.00272400 51260
GOES 15 [B]             
1 36411U 10008A   23178.48404491  .00000130  00000+0  00000+0 0  9991
2 36411   0.3818  95.7240 0000988  28.2106 159.6774  1.00166015 48751
GOES 16 [+]             
1 41866U 16071A   23178.88317056 -.00000229  00000+0  00000+0 0  9991
2 41866   0.0351 142.3186 0000368 315.5295  60.6246  1.00272063 24212
GOES 17 [+]             
1 43226U 18022A   23179.27757564 -.00000070  00000+0  00000+0 0  9991
2 43226   0.0433 178.1693 0002379 284.7355 168.4074  1.00271022 19554
GOES 18 [+]             
1 51850U 22021A   23179.47179220  .00000117  00000+0  00000+0 0  9997
2 51850   0.0056 247.5369 0000377 184.7906 236.8102  1.00271042  4924
